[{"OBJECT_NAME":"PROBA-1","OBJECT_ID":"2001-049B","EPOCH":"2026-03-09T22:57:25.772256","MEAN_MOTION":15.07031721,"ECCENTRICITY":0.00568356,"INCLINATION":97.9638,"RA_OF_ASC_NODE":74.0417,"ARG_OF_PERICENTER":98.1776,"MEAN_ANOMALY":262.5903,"EPHEMERIS_TYPE":0,"CLASSIFICATION_TYPE":"U","NORAD_CAT_ID":26958,"ELEMENT_SET_NO":999,"REV_AT_EPOCH":32867,"BSTAR":0.00028513173,"MEAN_MOTION_DOT":4.362e-5,"MEAN_MOTION_DDOT":0},{"OBJECT_NAME":"STARLINK-33980","OBJECT_ID":"2025-098E","EPOCH":"2026-03-09T22:14:12.592032","MEAN_MOTION":14.98335538,"ECCENTRICITY":0.00028504,"INCLINATION":70.0008,"RA_OF_ASC_NODE":274.0325,"ARG_OF_PERICENTER":267.4615,"MEAN_ANOMALY":92.6217,"EPHEMERIS_TYPE":0,"CLASSIFICATION_TYPE":"U","NORAD_CAT_ID":63930,"ELEMENT_SET_NO":999,"REV_AT_EPOCH":4660,"BSTAR":0.00027954242,"MEAN_MOTION_DOT":3.244e-5,"MEAN_MOTION_DDOT":0}]
